{
    "CCSDS_OMM_VERS": "3.0",
    "COMMENT": "GENERATED VIA SPACE-TRACK.ORG API",
    "CREATION_DATE": "2025-05-22T17:14:14",
    "ORIGINATOR": "18 SPCS",
    "OBJECT_NAME": "GALILEO-PFM",
    "OBJECT_ID": "2011-060A",
    "CENTER_NAME": "EARTH",
    "REF_FRAME": "TEME",
    "TIME_SYSTEM": "UTC",
    "MEAN_ELEMENT_THEORY": "SGP4",
    "EPOCH": "2025-05-22T04:23:16.106784",
    "MEAN_MOTION": "1.70475689",
    "ECCENTRICITY": "0.00036690",
    "INCLINATION": "57.0995",
    "RA_OF_ASC_NODE": "352.3598",
    "ARG_OF_PERICENTER": "37.3535",
    "MEAN_ANOMALY": "322.7150",
    "EPHEMERIS_TYPE": "0",
    "CLASSIFICATION_TYPE": "U",
    "NORAD_CAT_ID": "37846",
    "ELEMENT_SET_NO": "999",
    "REV_AT_EPOCH": "8445",
    "BSTAR": "0.00000000000000",
    "MEAN_MOTION_DOT": "-0.00000068",
    "MEAN_MOTION_DDOT": "0.0000000000000",
    "SEMIMAJOR_AXIS": "29600.125",
    "PERIOD": "844.695",
    "APOAPSIS": "23232.850",
    "PERIAPSIS": "23211.129",
    "OBJECT_TYPE": "PAYLOAD",
    "RCS_SIZE": "LARGE",
    "COUNTRY_CODE": "ESA",
    "LAUNCH_DATE": "2011-10-21",
    "SITE": "FRGUI",
    "DECAY_DATE": null,
    "FILE": "4736220",
    "GP_ID": "288141799",
    "TLE_LINE0": "0 GALILEO-PFM",
    "TLE_LINE1": "1 37846U 11060A   25142.18282531 -.00000068  00000-0  00000-0 0  9995",
    "TLE_LINE2": "2 37846  57.0995 352.3598 0003669  37.3535 322.7150  1.70475689 84458"
}